#dP2020  3 24  0  0  0.00000000      96 __u+U ITR00 FIT  IAC
## 2098 172800.00000000   900.00000000 58932 0.0000000000000
+  110   C06C07C08C09C10C11C12C13C14C16C19C20C21C22C23C24C25
+        C26C27C28C29C30C32C33C34C35C36C37C43C44C45C46E01E02
+        E03E04E05E07E08E09E11E12E13E14E15E18E21E24E25E26E27
+        E30E31E33E36G01G02G03G04G05G06G07G08G09G10G11G12G13
+        G14G15G16G17G18G19G20G21G22G23G24G25G26G27G28G29G30
+        G31G32R01R02R03R04R05R07R08R09R11R12R13R14R15R16R17
+        R18R19R20R21R22R23R24R26  0  0  0  0  0  0  0  0  0
++         9  9  9  8  8  9  8  8  8  9  8  8  7  8  8  8  8
++         8  8  8  8  8  8  8  8  8  8  8 13 11 12 13  4  4
++         4  4  4  5  4  4  4  5  4  4  4  4  4  4  4  4  4
++         4  4  4  4  3  3  3  3  4  3  4  4  3  4  4  3  3
++         3  3  3  3  4  3  4  4  3  4  3  3  4  4  3  3  3
++         3  3  6  5  5  6  6  5  5  5  6  5  6  6  6  6  5
++         5  6  6  5  5  5  6  8  0  0  0  0  0  0  0  0  0
%c M  cc GPS ccc cccc cccc cccc cccc ccccc ccccc ccccc ccccc
%c cc cc ccc ccc cccc cccc cccc cccc ccccc ccccc ccccc ccccc
%f  0.0000000  0.000000000  0.00000000000  0.000000000000000
%f  0.0000000  0.000000000  0.00000000000  0.000000000000000
%i    0    0    0    0      0      0      0      0         0
%i    0    0    0    0      0      0      0      0         0
/* INFORMATION & ANALYSIS CENTER (IAC)      ULTRA-RAPID DATA
/* S/V CLOCKS ARE ALIGNED TO GNSS TIME                      
/* G:C1WC2W R:C1PC2P E:C1XC5X C:C2IC6I J:C1CC2S             
/* PCV:IGS14_2097 OL/AL:FES2004  NONE     YN ORB:CoN CLK:CoN
*  2020 03 24 10 30  0.00000000
PC06 -13342.889795  20748.242283 -33835.207959    241.102879
PC07 -23763.591000  32514.739356  11790.893795    917.406193
PC08  -8725.698521  35118.306938  22005.386643   -169.101563
PC09   2866.152584  26908.213296 -31993.825366    423.684023
PC10 -11104.431954  33523.669056  22904.303064   -786.430625
PC11      0.000000      0.000000      0.000000 999999.999999
PC12  20145.332638    366.413871 -19280.324084    337.181712
PC13     43.257079  41304.945805   9197.575094    341.488656
PC14  16258.144483 -17208.505562  14851.074733    229.129351
PC16  -8255.592388  22654.532678 -34516.518916   -711.154259
PC19  -6677.924191  17729.881843 -20454.441112    361.174851
PC20 -22768.777755  14214.249856  -7560.872706   -918.273797
PC21  25873.484063  -2086.973296 -10249.759378   -207.002230
PC22  13648.750246  11016.840095 -21701.619518   -860.459069
PC23  -8549.987910 -20445.922766 -16960.326858   -935.620918
PC24  14427.298469 -18231.630874  15404.603598   -887.700295
PC25   3200.221706 -27672.232853  -1488.944501   -559.009877
PC26  16217.248866    437.148705  22696.570667    618.204291
PC27 -23366.479705  -8612.568994  12603.748233    300.702919
PC28 -18606.285826 -20262.738051  -4675.756602    291.668697
PC29   3755.325193  19935.310778  19156.025698    205.274291
PC30 -14381.650834   8372.764750  22405.361762    291.480645
PC32 -25849.684279   2239.368427  10281.314016   -907.273702
PC33   6658.852015 -17818.090782  20435.485374   -897.687922
PC34  14040.540560  -8757.454273 -22469.808899   -573.697985
PC35  19164.870409  19674.607574   4820.886561   -924.747640
PC36  -3982.271323  27589.898555   1289.214229   -821.366740
PC37 -16099.045896  -1494.115466 -22731.939020   -853.139762
PC43  -3354.343003 -19970.335840 -19214.001926   -119.267523
PC44  23672.675524   7905.398656 -12446.482938 999999.999999
PC45   8499.462215  20458.295462  16980.506735     93.270911
PC46 -14148.778900  18686.211307 -15167.231798 999999.999999
PE01 -16950.417476  24268.783422   -325.255305   -821.315120
PE02  16891.492919 -24295.556431    230.973035    121.564056
PE03  16162.264205 -13531.265420  20788.365657   -280.237026
PE04   5854.605545  17110.499174 -23426.768735   -491.376680
PE05  28935.183756  -1974.708020   5926.352314   -394.591370
PE07 -24715.970389 -10665.305484  12308.875351   -358.508921
PE08  -6195.509246 -16919.786110  23486.367339   6202.306577
PE09  24867.960381  10367.084047 -12268.954876   6115.537625
PE11  18473.438825  19849.736729 -11841.345119   1895.280050
PE12   8067.862603  27486.456620   7412.050239   5888.789586
PE13 -18470.234595 -19997.872632  11648.092117    399.484043
PE14  27042.961119  -1305.069478 -14865.178734   -951.909529
PE15  -8376.124926 -27461.721099  -7212.013950    872.900950
PE18 -24396.962102  -8178.786428   3513.375898  -1050.127075
PE21 -21388.464204  10588.057007 -17519.922890   -589.658749
PE24  13270.894240   9750.628740  24579.727620   5543.964737
PE25  21371.380373 -10474.649809  17595.235076   -507.603234
PE26 -17761.727924   -459.582288  23684.298186   3383.104399
PE27 -13399.249857  -9498.445336 -24627.310265    255.661397
PE30   2708.495917 -24026.574174 -17077.812794   4042.124774
PE31  -2430.258410  23935.845165  17247.196459   -472.086433
PE33  -6672.492084  18792.082858  21881.138126   -469.177998
PE36  17726.134091    789.013619 -23679.951927    581.994960
PG01 -14244.440597   3890.881002  21852.105833   -336.255463
PG02  13469.899597  18868.916739 -12380.276967   -427.403204
PG03 -22505.849284  11708.929718   7632.671243   -126.265665
PG04 -21990.797663   2140.467693 -14751.619495    -66.607264
PG05  15342.345178   6342.733230 -20902.895680     -9.651792
PG06   6968.736769  25298.443626  -3904.687494   -237.918638
PG07  -6863.019120  20977.696125 -14120.825192   -242.840075
PG08 -25656.350562  -5700.312518   4710.435792    -28.228882
PG09 -13232.170880  10709.904880 -20445.644166   -183.224865
PG10   5582.165745 -19760.219037  16801.424656   -287.660231
PG11 -19646.101216  -5401.249154  16394.626154   -325.082607
PG12  23075.912277  -8759.224896   9348.562241    137.173888
PG13  22943.419196  13377.424808  -1725.055241     -3.374446
PG14 -14027.083552 -17699.410741  14465.409495    -24.247300
PG15  26099.046203   3109.486732   4731.742697   -242.815357
PG16 -15200.804926  -6714.025658 -21036.659676   -138.587359
PG17   4302.539745  16798.191037  20555.696364    237.301202
PG18  10556.419068 -16109.585246 -18291.336745    130.353065
PG19  12353.378657  17539.336415  15365.720348   -181.535064
PG20  13559.404981 -21715.538385   6562.936780    527.852268
PG21   4070.199146 -22545.620178 -12867.862474    -23.551452
PG22 -21319.684328   5021.078402  15156.957826   -785.412461
PG23 -21984.376010   3431.489139 -14412.323096   -127.459742
PG24  15527.381719  -2203.759888  21250.954036    -10.754323
PG25  20051.147811 -17179.041433   -762.939326     -7.375106
PG26  -6565.974828 -14562.612062 -21223.179309    173.785373
PG27 -22788.226147 -12724.748408  -5943.900669   -247.364329
PG28  -5775.041813  18910.804695  18388.186072    730.621756
PG29  15467.952223  -7688.544138 -20218.076996    -64.190933
PG30    254.566504  26085.728313  -4331.225174   -182.591345
PG31  -8083.656133 -24176.267501  -6586.386060    -31.472170
PG32  -6032.209171 -16937.735021  19669.625863    243.645610
PR01 -23156.620611   -827.589432  10652.715797     58.991156
PR02 -21785.370407   8526.301641 -10191.894927    418.303814
PR03  -6480.170495  11614.722537 -21732.461418     12.080779
PR04  12375.090859   7805.969737 -20865.234586     43.084315
PR05  24163.669245   -247.234828  -8123.168124     47.328740
PR07   5753.622521 -11609.209054  22002.810067    -34.711198
PR08 -12363.503286  -7978.917012  20895.045672    -51.223311
PR09  12399.082709 -20097.897103   9738.459282    123.537398
PR11  -4100.608159 -16125.362490 -19342.179037    -17.802907
PR12 -11659.587719    596.740639 -22661.218628    116.646968
PR13 -12878.109043  17781.829898 -13009.678271    -36.450258
PR14  -6679.017965  24221.681263   4380.275396     49.430912
PR15   3419.059546  16735.964661  18960.645877    106.184035
PR16  11899.728792  -1124.135263  22491.225393     -2.332274
PR17   3643.222405  17484.300992  18237.885590    311.610990
PR18  14710.955651  20491.719491   3579.260898     29.588651
PR19  17633.310190  13309.243669 -12744.012625    -85.291802
PR20  10053.987145  -3857.525469 -23109.050502   -407.395247
PR21  -4338.426348 -17858.179574 -17677.427167   -113.380687
PR22 -15841.683223 -20065.367751   -771.412156    -19.120616
PR23 -16588.606870  -7780.471254  17746.840319    294.602094
PR24  -8382.637627   6209.416645  23256.036031    -48.980163
PR26  12748.022942    -35.396456 -22084.074277   -402.365754
EOF
